
# Worst residual: 190.59 km
# MJD 59169.000000 (2020 Nov 16  0:00)
ZTF0DXh
1 99999U 00000    20321.49919926  .00000000  00000-0  00000-0 0  8823
2 99999 016.9020 350.9942 5197579 271.7012 089.5373 00.96903194    06

# Worst residual: 177.22 km
# MJD 59170.000000 (2020 Nov 17  0:00)
ZTF0DXh
1 99999U 00000    20322.49919926  .00000000  00000-0  00000-0 0  8824
2 99999 016.8886 351.0896 5243473 272.4589 077.6078 00.97002979    09

# Worst residual: 168.50 km
# MJD 59171.000000 (2020 Nov 18  0:00)
ZTF0DXh
1 99999U 00000    20323.49919926  .00000000  00000-0  00000-0 0  8825
2 99999 016.8925 351.2071 5288182 273.1820 065.7992 00.97092662    03

# Worst residual: 165.28 km
# MJD 59172.000000 (2020 Nov 19  0:00)
ZTF0DXh
1 99999U 00000    20324.49919926  .00000000  00000-0  00000-0 0  8826
2 99999 016.8805 351.3331 5332597 273.9021 054.0699 00.97172564    06

# Worst residual: 178.07 km
# MJD 59173.000000 (2020 Nov 20  0:00)
ZTF0DXh
1 99999U 00000    20325.49919926  .00000000  00000-0  00000-0 0  8827
2 99999 016.8812 351.4390 5375423 274.6421 042.4641 00.97275874    03

# Worst residual: 171.35 km
# MJD 59174.000000 (2020 Nov 21  0:00)
ZTF0DXh
1 99999U 00000    20326.49919926  .00000000  00000-0  00000-0 0  8828
2 99999 016.8749 351.5627 5418758 275.3633 030.9454 00.97358321    01

# Worst residual: 158.82 km
# MJD 59175.000000 (2020 Nov 22  0:00)
ZTF0DXh
1 99999U 00000    20327.49919926  .00000000  00000-0  00000-0 0  8829
2 99999 016.8681 351.6914 5461792 276.0798 019.5218 00.97430264    00

# Worst residual: 138.40 km
# MJD 59176.000000 (2020 Nov 23  0:00)
ZTF0DXh
1 99999U 00000    20328.49919926  .00000000  00000-0  00000-0 0  8820
2 99999 016.8642 351.8159 5505901 276.7939 008.1956 00.97486550    07

# Worst residual: 112.64 km
# MJD 59177.000000 (2020 Nov 24  0:00)
ZTF0DXh
1 99999U 00000    20329.49919926  .00000000  00000-0  00000-0 0  8821
2 99999 016.8525 351.9692 5549183 277.4849 356.9790 00.97523652    03

# Worst residual: 99.04 km
# MJD 59178.000000 (2020 Nov 25  0:00)
ZTF0DXh
1 99999U 00000    20330.49919926  .00000000  00000-0  00000-0 0  8823
2 99999 016.8472 352.0946 5593605 278.1757 345.8584 00.97550355    00

# Worst residual: 125.91 km
# MJD 59179.000000 (2020 Nov 26  0:00)
ZTF0DXh
1 99999U 00000    20331.49919926  .00000000  00000-0  00000-0 0  8824
2 99999 016.8392 352.2364 5637492 278.8511 334.8520 00.97574720    05

# Worst residual: 137.38 km
# MJD 59180.000000 (2020 Nov 27  0:00)
ZTF0DXh
1 99999U 00000    20332.49919926  .00000000  00000-0  00000-0 0  8825
2 99999 016.8215 352.4136 5681812 279.4847 323.9265 00.97575877    01

# Worst residual: 147.03 km
# MJD 59181.000000 (2020 Nov 28  0:00)
ZTF0DXh
1 99999U 00000    20333.49919926  .00000000  00000-0  00000-0 0  8826
2 99999 016.8162 352.5544 5724651 280.1294 313.1385 00.97564813    02

# Worst residual: 149.69 km
# MJD 59182.000000 (2020 Nov 29  0:00)
ZTF0DXh
1 99999U 00000    20334.49919926  .00000000  00000-0  00000-0 0  8827
2 99999 016.8057 352.7118 5767488 280.7534 302.4317 00.97547567    05

# Worst residual: 148.26 km
# MJD 59183.000000 (2020 Nov 30  0:00)
ZTF0DXh
1 99999U 00000    20335.49919926  .00000000  00000-0  00000-0 0  8828
2 99999 016.7858 352.9385 5810254 281.3051 291.8034 00.97530110    05

# Worst residual: 166.98 km
# MJD 59184.000000 (2020 Dec  1  0:00)
ZTF0DXh
1 99999U 00000    20336.49919926  .00000000  00000-0  00000-0 0  8829
2 99999 016.7825 353.0426 5851045 281.9614 281.2824 00.97495716    03

# Worst residual: 177.32 km
# MJD 59185.000000 (2020 Dec  2  0:00)
ZTF0DXh
1 99999U 00000    20337.49919926  .00000000  00000-0  00000-0 0  8820
2 99999 016.7697 353.2153 5890281 282.5460 270.8299 00.97459490    09

# Worst residual: 161.24 km
# MJD 59186.000000 (2020 Dec  3  0:00)
ZTF0DXh
1 99999U 00000    20338.49919926  .00000000  00000-0  00000-0 0  8821
2 99999 016.7561 353.3899 5928058 283.1441 260.4021 00.97436386    04

# Worst residual: 153.32 km
# MJD 59187.000000 (2020 Dec  4  0:00)
ZTF0DXh
1 99999U 00000    20339.49919926  .00000000  00000-0  00000-0 0  8822
2 99999 016.7413 353.6304 5965468 283.6504 250.0791 00.97378178    08

# Worst residual: 154.27 km
# MJD 59188.000000 (2020 Dec  5  0:00)
ZTF0DXh
1 99999U 00000    20340.49919926  .00000000  00000-0  00000-0 0  8824
2 99999 016.7246 353.7659 6001018 284.2695 239.7623 00.97340844    04

# Worst residual: 141.10 km
# MJD 59189.000000 (2020 Dec  6  0:00)
ZTF0DXh
1 99999U 00000    20341.49919926  .00000000  00000-0  00000-0 0  8825
2 99999 016.7074 353.9592 6034629 284.8303 229.4638 00.97290562    00

# Worst residual: 116.78 km
# MJD 59190.000000 (2020 Dec  7  0:00)
ZTF0DXh
1 99999U 00000    20342.49919926  .00000000  00000-0  00000-0 0  8826
2 99999 016.6886 354.1599 6066995 285.3949 219.1481 00.97234534    02

# Worst residual: 89.97 km
# MJD 59191.000000 (2020 Dec  8  0:00)
ZTF0DXh
1 99999U 00000    20343.49919926  .00000000  00000-0  00000-0 0  8827
2 99999 016.6690 354.3675 6100128 285.9598 208.8177 00.97180934    06

# Worst residual: 74.93 km
# MJD 59192.000000 (2020 Dec  9  0:00)
ZTF0DXh
1 99999U 00000    20344.49919926  .00000000  00000-0  00000-0 0  8828
2 99999 016.6473 354.5873 6135399 286.5191 198.4821 00.97153714    07

# Worst residual: 61.60 km
# MJD 59193.000000 (2020 Dec 10  0:00)
ZTF0DXh
1 99999U 00000    20345.49919926  .00000000  00000-0  00000-0 0  8829
2 99999 016.6260 354.7955 6171517 287.0815 188.1548 00.97130910    00

# Worst residual: 58.23 km
# MJD 59194.000000 (2020 Dec 11  0:00)
ZTF0DXh
1 99999U 00000    20346.49919926  .00000000  00000-0  00000-0 0  8820
2 99999 016.6023 355.0322 6207235 287.6185 177.8251 00.97121335    09

# Worst residual: 52.22 km
# MJD 59195.000000 (2020 Dec 12  0:00)
ZTF0DXh
1 99999U 00000    20347.49919926  .00000000  00000-0  00000-0 0  8821
2 99999 016.5790 355.2544 6244767 288.1635 167.4974 00.97127853    02

# Worst residual: 57.47 km
# MJD 59196.000000 (2020 Dec 13  0:00)
ZTF0DXh
1 99999U 00000    20348.49919926  .00000000  00000-0  00000-0 0  8822
2 99999 016.5560 355.4683 6283428 288.7044 157.1838 00.97150516    07

# Worst residual: 79.87 km
# MJD 59197.000000 (2020 Dec 14  0:00)
ZTF0DXh
1 99999U 00000    20349.49919926  .00000000  00000-0  00000-0 0  8823
2 99999 016.5201 355.7142 6321494 289.1947 146.8944 00.97173796    03

# Worst residual: 104.23 km
# MJD 59198.000000 (2020 Dec 15  0:00)
ZTF0DXh
1 99999U 00000    20350.49919926  .00000000  00000-0  00000-0 0  8825
2 99999 016.5032 355.8894 6357476 289.7436 136.6121 00.97202771    08

# Worst residual: 143.27 km
# MJD 59199.000000 (2020 Dec 16  0:00)
ZTF0DXh
1 99999U 00000    20351.49919926  .00000000  00000-0  00000-0 0  8826
2 99999 016.4741 356.1483 6393128 290.2229 126.3056 00.97229789    04

# Worst residual: 167.73 km
# MJD 59200.000000 (2020 Dec 17  0:00)
ZTF0DXh
1 99999U 00000    20352.49919926  .00000000  00000-0  00000-0 0  8827
2 99999 016.4447 356.3786 6428650 290.7080 116.0236 00.97270424    02
